IXPE                    
1 49954U 21121A   23332.35827397  .00007870  00000+0  61842-3 0  9990
2 49954   0.2298  87.6162 0009966 168.7329 103.5400 14.95628476107610
